ONEWEB-0715             
1 55176U 23004AN  25219.60935292  .00000564  00000+0  15564-2 0  9995
2 55176  87.8792  83.5672 0001423  74.9621 285.1664 13.11417926124764
ONEWEB-0716             
1 55177U 23004AP  25219.58063609  .00000086  00000+0  18784-3 0  9994
2 55177  87.9029  68.2924 0001967  82.4361 277.6994 13.17651248126281
ONEWEB-0717             
1 55178U 23004AQ  25219.56376538  .00000082  00000+0  17754-3 0  9993
2 55178  87.9033  68.2557 0001439 110.6700 249.4586 13.17650266126333
ONEWEB-0719             
1 55179U 23004AR  25219.57389822  .00000067  00000+0  13926-3 0  9995
2 55179  87.9028  68.2368 0001984  86.7043 273.4315 13.17648290126281
ONEWEB-0530             
1 55796U 23029A   25219.38157462 -.00000005  00000+0 -43727-4 0  9996
2 55796  87.9301 337.0108 0002106 113.4520 246.6835 13.20772574119721
ONEWEB-0534             
1 55797U 23029B   25219.36895546  .00000080  00000+0  16516-3 0  9993
2 55797  87.9291 337.0198 0002009  97.2666 262.8696 13.20770067119721
ONEWEB-0556             
1 55798U 23029C   25219.37527064  .00000018  00000+0  12475-4 0  9994
2 55798  87.9299 337.0116 0002706 103.7107 256.4328 13.20772458119724
ONEWEB-0562             
1 55799U 23029D   25219.58993008  .00000043  00000+0  73666-4 0  9990
2 55799  87.9289 336.9598 0002567 117.1004 243.0391 13.20771685119752
ONEWEB-0563             
1 55800U 23029E   25219.58362087 -.00000005  00000+0 -44080-4 0  9998
2 55800  87.9300 336.9785 0002116  95.3285 264.8090 13.20772499119745
ONEWEB-0564             
1 55801U 23029F   25219.57729912  .00000063  00000+0  12300-3 0  9993
2 55801  87.9288 336.9649 0002067 109.9908 250.1448 13.20772037119753
ONEWEB-0638             
1 55802U 23029G   25219.63556477 -.00000202  00000+0 -57845-3 0  9995
2 55802  87.9080 352.1643 0002352 102.5153 257.6241 13.14502838118201
ONEWEB-0639             
1 55803U 23029H   25219.45364966  .00000118  00000+0  26262-3 0  9999
2 55803  87.9246   7.3522 0002317  65.7796 294.3579 13.19724489117524
ONEWEB-0640             
1 55804U 23029J   25219.64506221  .00000025  00000+0  33512-4 0  9997
2 55804  87.9077 352.1493 0002553  93.5549 266.5873 13.14504757118227
ONEWEB-0641             
1 55805U 23029K   25219.44891456  .00000059  00000+0  11537-3 0  9992
2 55805  87.9247   7.3245 0001869  88.2219 271.9128 13.19725144117531
ONEWEB-0642             
1 55806U 23029L   25219.44418325  .00000150  00000+0  34345-3 0  9997
2 55806  87.9239   7.3624 0001923  66.8327 293.3008 13.19726441117522
ONEWEB-0643             
1 55807U 23029M   25219.38658147 -.00000264  00000+0 -74643-3 0  9992
2 55807  87.9080 352.1834 0001508  73.5070 286.6225 13.14502354118167
ONEWEB-0644             
1 55808U 23029N   25219.43943885  .00000115  00000+0  25501-3 0  9997
2 55808  87.9245   7.3692 0001826  78.3963 281.7374 13.19726515117521
