[{"OBJECT_NAME":"ONEWEB-0715","OBJECT_ID":"2023-004AN","EPOCH":"2025-08-07T14:37:28.092288","MEAN_MOTION":13.11417926,"ECCENTRICITY":0.00014234,"INCLINATION":87.8792,"RA_OF_ASC_NODE":83.5672,"ARG_OF_PERICENTER":74.9621,"MEAN_ANOMALY":285.1664,"EPHEMERIS_TYPE":0,"CLASSIFICATION_TYPE":"U","NORAD_CAT_ID":55176,"ELEMENT_SET_NO":999,"REV_AT_EPOCH":12476,"BSTAR":0.0015564239,"MEAN_MOTION_DOT":5.64e-6,"MEAN_MOTION_DDOT":0},{"OBJECT_NAME":"ONEWEB-0716","OBJECT_ID":"2023-004AP","EPOCH":"2025-08-07T13:56:06.958176","MEAN_MOTION":13.17651248,"ECCENTRICITY":0.00019679,"INCLINATION":87.9029,"RA_OF_ASC_NODE":68.2924,"ARG_OF_PERICENTER":82.4361,"MEAN_ANOMALY":277.6994,"EPHEMERIS_TYPE":0,"CLASSIFICATION_TYPE":"U","NORAD_CAT_ID":55177,"ELEMENT_SET_NO":999,"REV_AT_EPOCH":12628,"BSTAR":0.00018783525,"MEAN_MOTION_DOT":8.6e-7,"MEAN_MOTION_DDOT":0},{"OBJECT_NAME":"ONEWEB-0717","OBJECT_ID":"2023-004AQ","EPOCH":"2025-08-07T13:31:49.328832","MEAN_MOTION":13.17650266,"ECCENTRICITY":0.00014393,"INCLINATION":87.9033,"RA_OF_ASC_NODE":68.2557,"ARG_OF_PERICENTER":110.67,"MEAN_ANOMALY":249.4586,"EPHEMERIS_TYPE":0,"CLASSIFICATION_TYPE":"U","NORAD_CAT_ID":55178,"ELEMENT_SET_NO":999,"REV_AT_EPOCH":12633,"BSTAR":0.00017754325,"MEAN_MOTION_DOT":8.2e-7,"MEAN_MOTION_DDOT":0},{"OBJECT_NAME":"ONEWEB-0719","OBJECT_ID":"2023-004AR","EPOCH":"2025-08-07T13:46:24.806208","MEAN_MOTION":13.1764829,"ECCENTRICITY":0.00019845,"INCLINATION":87.9028,"RA_OF_ASC_NODE":68.2368,"ARG_OF_PERICENTER":86.7043,"MEAN_ANOMALY":273.4315,"EPHEMERIS_TYPE":0,"CLASSIFICATION_TYPE":"U","NORAD_CAT_ID":55179,"ELEMENT_SET_NO":999,"REV_AT_EPOCH":12628,"BSTAR":0.0001392632,"MEAN_MOTION_DOT":6.7e-7,"MEAN_MOTION_DDOT":0},{"OBJECT_NAME":"ONEWEB-0530","OBJECT_ID":"2023-029A","EPOCH":"2025-08-07T09:09:28.047168","MEAN_MOTION":13.20772574,"ECCENTRICITY":0.0002106,"INCLINATION":87.9301,"RA_OF_ASC_NODE":337.0108,"ARG_OF_PERICENTER":113.452,"MEAN_ANOMALY":246.6835,"EPHEMERIS_TYPE":0,"CLASSIFICATION_TYPE":"U","NORAD_CAT_ID":55796,"ELEMENT_SET_NO":999,"REV_AT_EPOCH":11972,"BSTAR":-4.3726743e-5,"MEAN_MOTION_DOT":-5.0e-8,"MEAN_MOTION_DDOT":0},{"OBJECT_NAME":"ONEWEB-0534","OBJECT_ID":"2023-029B","EPOCH":"2025-08-07T08:51:17.751744","MEAN_MOTION":13.20770067,"ECCENTRICITY":0.00020099,"INCLINATION":87.9291,"RA_OF_ASC_NODE":337.0198,"ARG_OF_PERICENTER":97.2666,"MEAN_ANOMALY":262.8696,"EPHEMERIS_TYPE":0,"CLASSIFICATION_TYPE":"U","NORAD_CAT_ID":55797,"ELEMENT_SET_NO":999,"REV_AT_EPOCH":11972,"BSTAR":0.00016516416,"MEAN_MOTION_DOT":8.0e-7,"MEAN_MOTION_DDOT":0},{"OBJECT_NAME":"ONEWEB-0556","OBJECT_ID":"2023-029C","EPOCH":"2025-08-07T09:00:23.383296","MEAN_MOTION":13.20772458,"ECCENTRICITY":0.00027069,"INCLINATION":87.9299,"RA_OF_ASC_NODE":337.0116,"ARG_OF_PERICENTER":103.7107,"MEAN_ANOMALY":256.4328,"EPHEMERIS_TYPE":0,"CLASSIFICATION_TYPE":"U","NORAD_CAT_ID":55798,"ELEMENT_SET_NO":999,"REV_AT_EPOCH":11972,"BSTAR":1.2475294e-5,"MEAN_MOTION_DOT":1.8e-7,"MEAN_MOTION_DDOT":0},{"OBJECT_NAME":"ONEWEB-0562","OBJECT_ID":"2023-029D","EPOCH":"2025-08-07T14:09:29.958912","MEAN_MOTION":13.20771685,"ECCENTRICITY":0.00025671,"INCLINATION":87.9289,"RA_OF_ASC_NODE":336.9598,"ARG_OF_PERICENTER":117.1004,"MEAN_ANOMALY":243.0391,"EPHEMERIS_TYPE":0,"CLASSIFICATION_TYPE":"U","NORAD_CAT_ID":55799,"ELEMENT_SET_NO":999,"REV_AT_EPOCH":11975,"BSTAR":7.3665872e-5,"MEAN_MOTION_DOT":4.3e-7,"MEAN_MOTION_DDOT":0},{"OBJECT_NAME":"ONEWEB-0563","OBJECT_ID":"2023-029E","EPOCH":"2025-08-07T14:00:24.843168","MEAN_MOTION":13.20772499,"ECCENTRICITY":0.00021168,"INCLINATION":87.93,"RA_OF_ASC_NODE":336.9785,"ARG_OF_PERICENTER":95.3285,"MEAN_ANOMALY":264.809,"EPHEMERIS_TYPE":0,"CLASSIFICATION_TYPE":"U","NORAD_CAT_ID":55800,"ELEMENT_SET_NO":999,"REV_AT_EPOCH":11974,"BSTAR":-4.4080251e-5,"MEAN_MOTION_DOT":-5.0e-8,"MEAN_MOTION_DDOT":0},{"OBJECT_NAME":"ONEWEB-0564","OBJECT_ID":"2023-029F","EPOCH":"2025-08-07T13:51:18.643968","MEAN_MOTION":13.20772037,"ECCENTRICITY":0.00020672,"INCLINATION":87.9288,"RA_OF_ASC_NODE":336.9649,"ARG_OF_PERICENTER":109.9908,"MEAN_ANOMALY":250.1448,"EPHEMERIS_TYPE":0,"CLASSIFICATION_TYPE":"U","NORAD_CAT_ID":55801,"ELEMENT_SET_NO":999,"REV_AT_EPOCH":11975,"BSTAR":0.00012299529,"MEAN_MOTION_DOT":6.3e-7,"MEAN_MOTION_DDOT":0},{"OBJECT_NAME":"ONEWEB-0638","OBJECT_ID":"2023-029G","EPOCH":"2025-08-07T15:15:12.796128","MEAN_MOTION":13.14502838,"ECCENTRICITY":0.00023524,"INCLINATION":87.908,"RA_OF_ASC_NODE":352.1643,"ARG_OF_PERICENTER":102.5153,"MEAN_ANOMALY":257.6241,"EPHEMERIS_TYPE":0,"CLASSIFICATION_TYPE":"U","NORAD_CAT_ID":55802,"ELEMENT_SET_NO":999,"REV_AT_EPOCH":11820,"BSTAR":-0.00057844596,"MEAN_MOTION_DOT":-2.02e-6,"MEAN_MOTION_DDOT":0},{"OBJECT_NAME":"ONEWEB-0639","OBJECT_ID":"2023-029H","EPOCH":"2025-08-07T10:53:15.330624","MEAN_MOTION":13.19724489,"ECCENTRICITY":0.00023174,"INCLINATION":87.9246,"RA_OF_ASC_NODE":7.3522,"ARG_OF_PERICENTER":65.7796,"MEAN_ANOMALY":294.3579,"EPHEMERIS_TYPE":0,"CLASSIFICATION_TYPE":"U","NORAD_CAT_ID":55803,"ELEMENT_SET_NO":999,"REV_AT_EPOCH":11752,"BSTAR":0.0002626226,"MEAN_MOTION_DOT":1.18e-6,"MEAN_MOTION_DDOT":0},{"OBJECT_NAME":"ONEWEB-0640","OBJECT_ID":"2023-029J","EPOCH":"2025-08-07T15:28:53.374944","MEAN_MOTION":13.14504757,"ECCENTRICITY":0.00025534,"INCLINATION":87.9077,"RA_OF_ASC_NODE":352.1493,"ARG_OF_PERICENTER":93.5549,"MEAN_ANOMALY":266.5873,"EPHEMERIS_TYPE":0,"CLASSIFICATION_TYPE":"U","NORAD_CAT_ID":55804,"ELEMENT_SET_NO":999,"REV_AT_EPOCH":11822,"BSTAR":3.3511671e-5,"MEAN_MOTION_DOT":2.5e-7,"MEAN_MOTION_DDOT":0},{"OBJECT_NAME":"ONEWEB-0641","OBJECT_ID":"2023-029K","EPOCH":"2025-08-07T10:46:26.217984","MEAN_MOTION":13.19725144,"ECCENTRICITY":0.00018697,"INCLINATION":87.9247,"RA_OF_ASC_NODE":7.3245,"ARG_OF_PERICENTER":88.2219,"MEAN_ANOMALY":271.9128,"EPHEMERIS_TYPE":0,"CLASSIFICATION_TYPE":"U","NORAD_CAT_ID":55805,"ELEMENT_SET_NO":999,"REV_AT_EPOCH":11753,"BSTAR":0.00011537271,"MEAN_MOTION_DOT":5.9e-7,"MEAN_MOTION_DDOT":0},{"OBJECT_NAME":"ONEWEB-0642","OBJECT_ID":"2023-029L","EPOCH":"2025-08-07T10:39:37.432800","MEAN_MOTION":13.19726441,"ECCENTRICITY":0.00019231,"INCLINATION":87.9239,"RA_OF_ASC_NODE":7.3624,"ARG_OF_PERICENTER":66.8327,"MEAN_ANOMALY":293.3008,"EPHEMERIS_TYPE":0,"CLASSIFICATION_TYPE":"U","NORAD_CAT_ID":55806,"ELEMENT_SET_NO":999,"REV_AT_EPOCH":11752,"BSTAR":0.00034344953,"MEAN_MOTION_DOT":1.5e-6,"MEAN_MOTION_DDOT":0},{"OBJECT_NAME":"ONEWEB-0643","OBJECT_ID":"2023-029M","EPOCH":"2025-08-07T09:16:40.639008","MEAN_MOTION":13.14502354,"ECCENTRICITY":0.00015089,"INCLINATION":87.908,"RA_OF_ASC_NODE":352.1834,"ARG_OF_PERICENTER":73.507,"MEAN_ANOMALY":286.6225,"EPHEMERIS_TYPE":0,"CLASSIFICATION_TYPE":"U","NORAD_CAT_ID":55807,"ELEMENT_SET_NO":999,"REV_AT_EPOCH":11816,"BSTAR":-0.0007464346,"MEAN_MOTION_DOT":-2.64e-6,"MEAN_MOTION_DDOT":0},{"OBJECT_NAME":"ONEWEB-0644","OBJECT_ID":"2023-029N","EPOCH":"2025-08-07T10:32:47.516640","MEAN_MOTION":13.19726515,"ECCENTRICITY":0.00018269,"INCLINATION":87.9245,"RA_OF_ASC_NODE":7.3692,"ARG_OF_PERICENTER":78.3963,"MEAN_ANOMALY":281.7374,"EPHEMERIS_TYPE":0,"CLASSIFICATION_TYPE":"U","NORAD_CAT_ID":55808,"ELEMENT_SET_NO":999,"REV_AT_EPOCH":11752,"BSTAR":0.00025501033,"MEAN_MOTION_DOT":1.15e-6,"MEAN_MOTION_DDOT":0}]
